[{"OBJECT_NAME":"TIANMU-1 22","OBJECT_ID":"2023-208D","EPOCH":"2026-03-09T22:39:05.738688","MEAN_MOTION":15.29457749,"ECCENTRICITY":0.00031332,"INCLINATION":97.4379,"RA_OF_ASC_NODE":184.9419,"ARG_OF_PERICENTER":351.9312,"MEAN_ANOMALY":8.1877,"EPHEMERIS_TYPE":0,"CLASSIFICATION_TYPE":"U","NORAD_CAT_ID":58663,"ELEMENT_SET_NO":999,"REV_AT_EPOCH":12215,"BSTAR":0.00038239675,"MEAN_MOTION_DOT":0.00010851,"MEAN_MOTION_DDOT":0},{"OBJECT_NAME":"STARLINK-35593","OBJECT_ID":"2025-236X","EPOCH":"2026-03-09T10:07:14.554272","MEAN_MOTION":15.30193624,"ECCENTRICITY":0.00012594,"INCLINATION":53.1598,"RA_OF_ASC_NODE":105.1111,"ARG_OF_PERICENTER":73.6462,"MEAN_ANOMALY":286.4677,"EPHEMERIS_TYPE":0,"CLASSIFICATION_TYPE":"U","NORAD_CAT_ID":66107,"ELEMENT_SET_NO":999,"REV_AT_EPOCH":2290,"BSTAR":0.00062980482,"MEAN_MOTION_DOT":0.00018336,"MEAN_MOTION_DDOT":0}]
